*******************************************************************************
Ephemeris / WWW_USER Mon Mar 26 20:11:18 2018 Pasadena, USA      / Horizons    
*******************************************************************************
Target body name: Mars (499)                      {source: mar097}
Center body name: Mars Barycenter (4)             {source: mar097}
Center-site name: BODY CENTER
*******************************************************************************
Start time      : A.D. 2000-Jan-01 00:00:00.0000 TDB
Stop  time      : A.D. 2005-Jan-01 00:00:00.0000 TDB
Step-size       : 7200 minutes
*******************************************************************************
Center geodetic : 0.00000000,0.00000000,0.0000000 {E-lon(deg),Lat(deg),Alt(km)}
Center cylindric: 0.00000000,0.00000000,0.0000000 {E-lon(deg),Dxy(km),Dz(km)}
Center radii    : (undefined)                                                  
Output units    : AU-D                                                         
Output type     : GEOMETRIC cartesian states
Output format   : 2 (position and velocity)
Reference frame : ICRF/J2000.0                                                 
Coordinate systm: Ecliptic and Mean Equinox of Reference Epoch                 
*******************************************************************************
JDTDB
   X     Y     Z
   VX    VY    VZ
*******************************************************************************
$$SOE
2452174.500000000 = A.D. 2001-Sep-22 00:00:00.0000 TDB 
   1.002855552443830E-12  6.697039376882144E-13 -4.444022222263771E-13
  -1.223433010710908E-11  1.606305250108645E-11  6.977057121565687E-12
2452179.500000000 = A.D. 2001-Sep-27 00:00:00.0000 TDB 
   5.996027114285535E-13 -1.112392670981011E-12 -3.759925444374054E-13
   1.795222733542970E-11  8.721789745779386E-12 -8.007829021255536E-12
2452184.500000000 = A.D. 2001-Oct-02 00:00:00.0000 TDB 
  -6.724269196992402E-13 -1.145700140952368E-13  3.045282255921781E-13
  -1.445289425334951E-12 -1.920975029641564E-11 -6.988268714227719E-13
2452189.500000000 = A.D. 2001-Oct-07 00:00:00.0000 TDB 
   7.255235553118397E-13  5.943030438793435E-13 -3.119073981121116E-13
  -1.393532214838403E-11  1.196208705676874E-11  7.424699402112626E-12
2452194.500000000 = A.D. 2001-Oct-12 00:00:00.0000 TDB 
   6.229002718608044E-13 -1.189198178319008E-12 -3.823581239151599E-13
   1.700077795439259E-11  1.177558700139537E-11 -7.371673436482829E-12
2452199.500000000 = A.D. 2001-Oct-17 00:00:00.0000 TDB 
  -8.738052071126098E-13 -4.748337823848199E-13  3.838316671106952E-13
   3.289847606505618E-12 -2.023954220457492E-11 -3.003352285023264E-12
2452204.500000000 = A.D. 2001-Oct-22 00:00:00.0000 TDB 
   3.237016953840114E-13  6.220082865158803E-13 -1.106301563547718E-13
  -1.556071349082978E-11  6.749375816758045E-12  7.804515728528767E-12
2452209.500000000 = A.D. 2001-Oct-27 00:00:00.0000 TDB 
   5.593056918681095E-13 -1.055301391639934E-12 -3.312944132755451E-13
   1.453757108106569E-11  1.391098279474307E-11 -6.069550255628524E-12
2452214.500000000 = A.D. 2001-Nov-01 00:00:00.0000 TDB 
  -1.052179909419474E-12 -6.465524354833175E-13  4.666160259172587E-13
   7.125234839372073E-12 -2.041013794698703E-11 -4.781971480635259E-12
2452219.500000000 = A.D. 2001-Nov-06 00:00:00.0000 TDB 
  -7.791706522743707E-14  7.871716587396097E-13  9.781117863775560E-14
  -1.716920770836859E-11  1.255606494619207E-12  8.212762597490158E-12
2452224.500000000 = A.D. 2001-Nov-11 00:00:00.0000 TDB 
   5.206812268328313E-13 -7.110198032950304E-13 -2.815939910613382E-13
   1.067559769945243E-11  1.563631073787883E-11 -4.118215736033346E-12
2452229.500000000 = A.D. 2001-Nov-16 00:00:00.0000 TDB 
  -1.093324324629725E-12 -6.448825014863420E-13  4.927123391045255E-13
   9.986053849131049E-12 -1.912172226596454E-11 -5.977436060274030E-12
2452234.500000000 = A.D. 2001-Nov-21 00:00:00.0000 TDB 
  -3.635445419178537E-13  1.029296216575590E-12  2.505018151789539E-13
  -1.842896266233208E-11 -3.708895627218237E-12  8.537361906247905E-12
2452239.500000000 = A.D. 2001-Nov-26 00:00:00.0000 TDB 
   5.901061974644874E-13 -2.508453740519404E-13 -2.830248293592683E-13
   5.959594316058080E-12  1.734004257498131E-11 -1.760588763788633E-12
2452244.500000000 = A.D. 2001-Dec-01 00:00:00.0000 TDB 
  -9.340425291930694E-13 -5.686430747567858E-13  4.226201540976116E-13
   1.217362140923883E-11 -1.608198833628631E-11 -6.745034242540134E-12
2452249.500000000 = A.D. 2001-Dec-06 00:00:00.0000 TDB 
  -4.814659669209033E-13  1.222788262644893E-12  3.134836538549347E-13
  -1.876531452186773E-11 -7.673933594491885E-12  8.512942541194766E-12
2452254.500000000 = A.D. 2001-Dec-11 00:00:00.0000 TDB 
   7.756273582095023E-13  1.816452946919896E-13 -3.495587791299452E-13
   1.159993777817410E-12  1.902416157765891E-11  6.219561504688331E-13
2452259.500000000 = A.D. 2001-Dec-16 00:00:00.0000 TDB 
  -5.977295564257757E-13 -5.424840960967965E-13  2.596381806381028E-13
   1.410992429847680E-11 -1.151194975457833E-11 -7.333165324289427E-12
2452264.500000000 = A.D. 2001-Dec-21 00:00:00.0000 TDB 
  -4.671276890102653E-13  1.244349904559369E-12  2.979823563298864E-13
  -1.765833828216479E-11 -1.066077665667044E-11  7.864514730673692E-12
2452269.500000000 = A.D. 2001-Dec-26 00:00:00.0000 TDB 
   1.003374785398597E-12  4.657322618397712E-13 -4.510376266185759E-13
  -3.056697591569913E-12  2.026264176260912E-11  2.675416149587806E-12
2452274.500000000 = A.D. 2001-Dec-31 00:00:00.0000 TDB 
  -1.856993514674312E-13 -6.476374160987700E-13  4.998314114304015E-14
   1.604226696734753E-11 -6.102415050718303E-12 -7.925810883807047E-12
2452279.500000000 = A.D. 2002-Jan-05 00:00:00.0000 TDB 
  -4.199004953407953E-13  1.037766340725279E-12  2.525696632089728E-13
  -1.493042696052356E-11 -1.306480396265108E-11  6.463487959876847E-12
2452284.500000000 = A.D. 2002-Jan-10 00:00:00.0000 TDB 
   1.155449273810108E-12  5.611289370690131E-13 -5.288981751067133E-13
  -6.384836441564133E-12  2.040060281206673E-11  4.216825490951909E-12
2452289.500000000 = A.D. 2002-Jan-15 00:00:00.0000 TDB 
   1.735432014032699E-13 -8.754111764119958E-13 -1.401932647506019E-13
   1.784472345238183E-11 -7.277016538162614E-13 -8.520044912629214E-12
2452294.500000000 = A.D. 2002-Jan-20 00:00:00.0000 TDB 
  -4.451319971417174E-13  6.464748339027601E-13  2.353183672331055E-13
  -1.087669719051970E-11 -1.534821876607191E-11  4.416951181228305E-12
2452299.500000000 = A.D. 2002-Jan-25 00:00:00.0000 TDB 
   1.132283461988081E-12  5.247662815654847E-13 -5.273038787017617E-13
  -8.950083201879133E-12  1.890710695882911E-11  5.292524750674467E-12
2452304.500000000 = A.D. 2002-Jan-30 00:00:00.0000 TDB 
   3.864654029901466E-13 -1.129061885718396E-12 -2.570049701841674E-13
   1.904193180816288E-11  3.907588241568005E-12 -8.914287332310548E-12
2452309.500000000 = A.D. 2002-Feb-04 00:00:00.0000 TDB 
  -5.955904974861278E-13  1.939776176473453E-13  2.821712624380009E-13
  -6.166622773293635E-12 -1.771006524205115E-11  2.039672357708653E-12
2452314.500000000 = A.D. 2002-Feb-09 00:00:00.0000 TDB 
   9.057585588317853E-13  4.751299375301470E-13 -4.230263940946448E-13
  -1.115195163261369E-11  1.567229730354529E-11  6.115151917769022E-12
2452319.500000000 = A.D. 2002-Feb-14 00:00:00.0000 TDB 
   4.397842846671951E-13 -1.274883227554190E-12 -2.855440854815356E-13
   1.904340076356827E-11  7.542660925457416E-12 -8.811264862362090E-12
2452324.500000000 = A.D. 2002-Feb-19 00:00:00.0000 TDB 
  -8.398075041407941E-13 -1.783134152894961E-13  3.863201069180664E-13
  -1.558124801676694E-12 -1.991425060811542E-11 -2.797234044565131E-13
2452329.500000000 = A.D. 2002-Feb-24 00:00:00.0000 TDB 
   5.364342812697638E-13  5.250603036579633E-13 -2.390112630142925E-13
  -1.336610540019767E-11  1.111071409532965E-11  6.915466733934891E-12
2452334.500000000 = A.D. 2002-Mar-01 00:00:00.0000 TDB 
   4.023856856289665E-13 -1.211273662949198E-12 -2.554804172461703E-13
   1.744843829611888E-11  1.038307917641243E-11 -7.975944392616147E-12
2452339.500000000 = A.D. 2002-Mar-06 00:00:00.0000 TDB 
  -1.076444485234361E-12 -3.794866931744503E-13  5.010449355601043E-13
   2.413916288942559E-12 -2.135779927997157E-11 -2.242774767157249E-12
2452344.500000000 = A.D. 2002-Mar-11 00:00:00.0000 TDB 
   1.437071977633225E-13  7.185639624798581E-13 -3.327770627068966E-14
  -1.567681731769632E-11  5.999867078852775E-12  7.792166308980646E-12
2452349.500000000 = A.D. 2002-Mar-16 00:00:00.0000 TDB 
   3.834101833881833E-13 -9.243473407970340E-13 -2.230310664211940E-13
   1.428474351440390E-11  1.289012844684636E-11 -6.374464457156999E-12
2452354.500000000 = A.D. 2002-Mar-21 00:00:00.0000 TDB 
  -1.186752885711835E-12 -4.125963387198146E-13  5.639616287356815E-13
   5.622024965542583E-12 -2.136330174339180E-11 -3.754763490369558E-12
2452359.500000000 = A.D. 2002-Mar-26 00:00:00.0000 TDB 
  -1.525041902771277E-13  1.003748981522161E-12  1.294156179133829E-13
  -1.777021550437129E-11  1.154936566013073E-12  8.633754292482674E-12
2452364.500000000 = A.D. 2002-Mar-31 00:00:00.0000 TDB 
   4.716650630872498E-13 -4.975027040380119E-13 -2.400965093706799E-13
   1.003367126800399E-11  1.544615588652534E-11 -4.211912385516450E-12
2452369.500000000 = A.D. 2002-Apr-05 00:00:00.0000 TDB 
  -1.096103147507015E-12 -3.676625593459409E-13  5.295159429151530E-13
   8.322112515606282E-12 -1.952448709504661E-11 -4.933591843979222E-12
2452374.500000000 = A.D. 2002-Apr-10 00:00:00.0000 TDB 
  -2.913304684598479E-13  1.258412759408963E-12  2.101086189734008E-13
  -1.905983889885694E-11 -2.917082830578639E-12  9.161058857865411E-12
2452379.500000000 = A.D. 2002-Apr-15 00:00:00.0000 TDB 
   6.837852842222646E-13 -7.021414906875925E-14 -3.245889021130576E-13
   5.440441258212529E-12  1.806601435713670E-11 -1.854695137274797E-12
